EUTELSAT 8 WEST B       
1 40875U 15039B   25259.58199868 -.00000085  00000+0  00000+0 0  9991
2 40875   0.0689  10.3131 0003729 166.3716  20.6213  1.00272358 36910
EUTELSAT 9B             
1 41310U 16005A   25259.58546536  .00000043  00000+0  00000+0 0  9991
2 41310   0.0364  59.1422 0002678 157.0015 359.4115  1.00274085 35372
EUTELSAT 65 WEST A      
1 41382U 16014A   25259.49940498 -.00000296  00000+0  00000+0 0  9996
2 41382   0.0778  44.7471 0002163 137.5240 288.0242  1.00272173 34795
EUTELSAT 117 WEST B     
1 41589U 16038B   25259.20365288 -.00000030  00000+0  00000+0 0  9994
2 41589   0.0393  14.6362 0000124  53.1916 243.8918  1.00270674 33916
EUTELSAT 172B           
1 42741U 17029B   25259.40372455 -.00000025  00000+0  00000+0 0  9996
2 42741   0.0162 175.3349 0000081 132.6302   4.9870  1.00270928 30984
EUTELSAT 7C             
1 44334U 19034B   25258.33794633  .00000032  00000+0  00000+0 0  9998
2 44334   0.0735 185.5319 0003124 339.4445 318.2151  1.00271088  4089
EUTELSAT 5 WEST B       
1 44624U 19067A   25259.58260535 -.00000062  00000+0  00000+0 0  9997
2 44624   0.0788 325.5486 0003126 218.0402  16.9191  1.00271364 21696
EUTELSAT KONNECT        
1 45027U 20005B   25258.33794633  .00000033  00000+0  00000+0 0  9999
2 45027   0.0651  98.8788 0001606  78.0857 306.4251  1.00269005 21577
